CRE (WAAS/PRN 138)      
1 28868U 05036A   22198.52479904 -.00000086  00000+0  00000+0 0  9991
2 28868   0.6352  93.5195 0003189  10.8792 272.5234  1.00271173 32103
IOR-W (EGNOS/PRN 126)   
1 28899U 05044A   22198.52549469 -.00000002  00000+0  00000+0 0  9996
2 28899   3.5226  37.6519 0003027  87.4356  63.2993  1.00271819 61156
QZS-1 (QZSS/PRN 183)    
1 37158U 10045A   22196.69910743 -.00000174  00000+0  00000+0 0  9994
2 37158  42.3645 132.9984 0762915 270.7934 281.1387  1.00250938 43373
GSAT-8 (GAGAN/PRN 127)  
1 37605U 11022A   22198.50846910  .00000073  00000+0  00000+0 0  9990
2 37605   0.0522 251.2559 0002210  22.4281 259.6932  1.00272179 38876
LUCH 5A (SDCM/PRN 140)  
1 37951U 11074B   22198.59493787 -.00000060  00000+0  00000+0 0  9997
2 37951   5.0924  97.1224 0006004   5.1353 214.3005  1.00273923 38844
SES-5 (EGNOS/PRN 136)   
1 38652U 12036A   22198.28326486  .00000022  00000+0  00000+0 0  9999
2 38652   0.0595 288.6449 0002072 185.8622 287.5085  1.00270679 30133
GSAT-10 (GAGAN/PRN 128) 
1 38779U 12051B   22198.52063208 -.00000176  00000+0  00000+0 0  9994
2 38779   0.0563 105.0830 0001827  45.6794  54.9924  1.00269246 35775
LUCH 5B (SDCM/PRN 125)  
1 38977U 12061A   22198.35076640 -.00000149  00000+0  00000+0 0  9990
2 38977   7.3554  62.4014 0005950  53.2481 289.4861  1.00271251 35824
ASTRA 5B (EGNOS/PRN 123)
1 39617U 14011B   22198.50384748  .00000143  00000+0  00000+0 0  9990
2 39617   0.0452  55.1336 0003571  62.2451  30.7674  1.00272360 30324
LUCH 5V (SDCM/PRN 141)  
1 39727U 14023A   22198.54032003 -.00000281  00000+0  00000+0 0  9997
2 39727   1.5672  75.9061 0003799  62.0346  86.6475  1.00271193 30012
GSAT-15 (GAGAN/PRN 139) 
1 41028U 15065A   22198.51618590 -.00000269  00000+0  00000+0 0  9995
2 41028   0.0486 239.0123 0004255 215.8995 119.6983  1.00269968 24464
E 117 W B (WAAS/PRN 131)
1 41589U 16038B   22198.41676881 -.00000023  00000+0  00000+0 0  9992
2 41589   0.0068 204.8896 0000272  22.8259 100.5391  1.00268847 22323
SES-15 (WAAS/PRN 133)   
1 42709U 17026A   22198.53104965  .00000049  00000+0  00000+0 0  9994
2 42709   0.0180   7.1053 0000595 110.2134 240.0147  1.00268233 19799
QZS-2 (QZSS/PRN 184)    
1 42738U 17028A   22198.50205410 -.00000180  00000+0  00000+0 0  9999
2 42738  41.7217 263.7485 0757355 269.4916  83.8397  1.00278575 18802
QZS-3 (QZSS/PRN 189)    
1 42917U 17048A   22198.56716076 -.00000360  00000+0  00000+0 0  9991
2 42917   0.0568 208.7316 0002436 283.5692 134.1761  1.00267169 17914
QZS-4 (QZSS/PRN 185)    
1 42965U 17062A   22196.80392328 -.00000358  00000+0  00000+0 0  9992
2 42965  40.7640   1.7514 0745819 268.4885  87.8582  1.00300280 17451
GALAXY 30 (WAAS/PRN 135)
1 46114U 20056C   22198.47515920  .00000026  00000+0  00000+0 0  9990
2 46114   0.0188  54.6439 0001991  55.2719 231.3780  1.00270912  6940
